ONEWEB-0340             
1 49206U 21083W   24359.95580049  .00000095  00000+0  20701-3 0  9994
2 49206  87.9110  82.7375 0001905 103.2818 256.8527 13.18684848160192
ONEWEB-0341             
1 49207U 21083X   24359.96370760  .00000064  00000+0  12940-3 0  9995
2 49207  87.9109  82.7470 0002130 120.2358 239.8986 13.18685199160219
ONEWEB-0342             
1 49208U 21083Y   24359.81101377 -.00000015  00000+0 -67631-4 0  9992
2 49208  87.9239  21.7687 0001703  93.8278 266.3051 13.20770248165584
ONEWEB-0343             
1 49209U 21083Z   24359.95896525  .00000033  00000+0  52107-4 0  9994
2 49209  87.9104  82.7439 0001839 126.1058 234.0245 13.18685695160269
ONEWEB-0344             
1 49210U 21083AA  24359.90785137 -.00000141  00000+0 -42033-3 0  9995
2 49210  87.8924  67.5121 0002110 111.0739 249.0615 13.13467996160108
ONEWEB-0345             
1 49211U 21083AB  24359.92531888 -.00000216  00000+0 -62742-3 0  9992
2 49211  87.8921  67.4779 0002216 111.9633 248.1732 13.13471642160117
ONEWEB-0346             
1 49212U 21083AC  24359.74082654  .00000019  00000+0  15658-4 0  9999
2 49212  87.9110  82.8009 0002041  97.1899 262.9465 13.18684482158882
ONEWEB-0348             
1 49213U 21083AD  24359.57427043  .00000062  00000+0  12134-3 0  9999
2 49213  87.9251  21.8058 0002491  96.2226 263.9191 13.20769899165580
